[Satellite]
VERSION=1.1
NAME=ORBCOMM FM06 [+]
NICKNAME=ORBCOMM FM06 [+]
TLE1=1 25118U 97084G   17186.23886883  .00000055  00000-0  64216-4 0  9997
TLE2=2 25118  45.0161 142.5160 0003188 352.4941 142.1006 14.38562703 22909
